CCSDS_OMM_VERS = 2.0
CREATION_DATE  = 
ORIGINATOR     = 

OBJECT_NAME    = ERS-1
OBJECT_ID      = 1991-050A
CENTER_NAME    = EARTH
REF_FRAME      = TEME
TIME_SYSTEM    = UTC
MEAN_ELEMENT_THEORY = SGP/SGP4

EPOCH          = 2026-03-27T18:28:58.303200
MEAN_MOTION    = 14.39462526
ECCENTRICITY   = .0032638
INCLINATION    = 98.7867
RA_OF_ASC_NODE = 105.4584
ARG_OF_PERICENTER = 147.0580
MEAN_ANOMALY   = 213.2650

EPHEMERIS_TYPE = 0
CLASSIFICATION_TYPE = U
NORAD_CAT_ID   = 21574
ELEMENT_SET_NO = 999
REV_AT_EPOCH   = 81833
BSTAR          = .10945E-3
MEAN_MOTION_DOT = .297E-5
MEAN_MOTION_DDOT = 0

CCSDS_OMM_VERS = 2.0
CREATION_DATE  = 
ORIGINATOR     = 

OBJECT_NAME    = ARIANE 40 R/B
OBJECT_ID      = 1991-050F
CENTER_NAME    = EARTH
REF_FRAME      = TEME
TIME_SYSTEM    = UTC
MEAN_ELEMENT_THEORY = SGP/SGP4

EPOCH          = 2026-03-27T20:20:15.493920
MEAN_MOTION    = 14.42906365
ECCENTRICITY   = .0003602
INCLINATION    = 98.1975
RA_OF_ASC_NODE = 138.3992
ARG_OF_PERICENTER = 40.1291
MEAN_ANOMALY   = 320.0165

EPHEMERIS_TYPE = 0
CLASSIFICATION_TYPE = U
NORAD_CAT_ID   = 21610
ELEMENT_SET_NO = 999
REV_AT_EPOCH   = 82161
BSTAR          = .98684E-4
MEAN_MOTION_DOT = .288E-5
MEAN_MOTION_DDOT = 0

CCSDS_OMM_VERS = 2.0
CREATION_DATE  = 
ORIGINATOR     = 

OBJECT_NAME    = INTERCOSMOS 25
OBJECT_ID      = 1991-086A
CENTER_NAME    = EARTH
REF_FRAME      = TEME
TIME_SYSTEM    = UTC
MEAN_ELEMENT_THEORY = SGP/SGP4

EPOCH          = 2026-03-27T19:38:06.475200
MEAN_MOTION    = 12.12059081
ECCENTRICITY   = .1486563
INCLINATION    = 82.6016
RA_OF_ASC_NODE = 299.0489
ARG_OF_PERICENTER = 77.8733
MEAN_ANOMALY   = 298.4445

EPHEMERIS_TYPE = 0
CLASSIFICATION_TYPE = U
NORAD_CAT_ID   = 21819
ELEMENT_SET_NO = 999
REV_AT_EPOCH   = 49888
BSTAR          = .28854E-3
MEAN_MOTION_DOT = .1507E-4
MEAN_MOTION_DDOT = 0

CCSDS_OMM_VERS = 2.0
CREATION_DATE  = 
ORIGINATOR     = 

OBJECT_NAME    = SL-8 R/B
OBJECT_ID      = 1992-008B
CENTER_NAME    = EARTH
REF_FRAME      = TEME
TIME_SYSTEM    = UTC
MEAN_ELEMENT_THEORY = SGP/SGP4

EPOCH          = 2026-03-27T20:07:18.537600
MEAN_MOTION    = 13.75969593
ECCENTRICITY   = .0035947
INCLINATION    = 82.9232
RA_OF_ASC_NODE = 254.2737
ARG_OF_PERICENTER = 84.3910
MEAN_ANOMALY   = 26.5510

EPHEMERIS_TYPE = 0
CLASSIFICATION_TYPE = U
NORAD_CAT_ID   = 21876
ELEMENT_SET_NO = 999
REV_AT_EPOCH   = 71191
BSTAR          = .1726E-4
MEAN_MOTION_DOT = .32E-6
MEAN_MOTION_DDOT = 0

CCSDS_OMM_VERS = 2.0
CREATION_DATE  = 
ORIGINATOR     = 

OBJECT_NAME    = SL-8 R/B
OBJECT_ID      = 1992-020B
CENTER_NAME    = EARTH
REF_FRAME      = TEME
TIME_SYSTEM    = UTC
MEAN_ELEMENT_THEORY = SGP/SGP4

EPOCH          = 2026-03-27T16:04:51.060288
MEAN_MOTION    = 13.75550507
ECCENTRICITY   = .0027734
INCLINATION    = 82.9306
RA_OF_ASC_NODE = 140.4118
ARG_OF_PERICENTER = 246.2308
MEAN_ANOMALY   = 230.4762

EPHEMERIS_TYPE = 0
CLASSIFICATION_TYPE = U
NORAD_CAT_ID   = 21938
ELEMENT_SET_NO = 999
REV_AT_EPOCH   = 70360
BSTAR          = .18235E-4
MEAN_MOTION_DOT = .33E-6
MEAN_MOTION_DDOT = 0

CCSDS_OMM_VERS = 2.0
CREATION_DATE  = 
ORIGINATOR     = 

OBJECT_NAME    = USA 81
OBJECT_ID      = 1992-023A
CENTER_NAME    = EARTH
REF_FRAME      = TEME
TIME_SYSTEM    = UTC
MEAN_ELEMENT_THEORY = SGP/SGP4

EPOCH          = 2026-03-27T19:43:21.435168
MEAN_MOTION    = 14.32373634
ECCENTRICITY   = .0001822
INCLINATION    = 85.0049
RA_OF_ASC_NODE = 120.9773
ARG_OF_PERICENTER = 68.0453
MEAN_ANOMALY   = 292.0934

EPHEMERIS_TYPE = 0
CLASSIFICATION_TYPE = U
NORAD_CAT_ID   = 21949
ELEMENT_SET_NO = 999
REV_AT_EPOCH   = 9738
BSTAR          = .56068E-4
MEAN_MOTION_DOT = .171E-5
MEAN_MOTION_DDOT = 0

CCSDS_OMM_VERS = 2.0
CREATION_DATE  = 
ORIGINATOR     = 

OBJECT_NAME    = COSMOS 2219
OBJECT_ID      = 1992-076A
CENTER_NAME    = EARTH
REF_FRAME      = TEME
TIME_SYSTEM    = UTC
MEAN_ELEMENT_THEORY = SGP/SGP4

EPOCH          = 2026-03-27T20:12:41.430816
MEAN_MOTION    = 14.14091148
ECCENTRICITY   = .0017961
INCLINATION    = 71.0625
RA_OF_ASC_NODE = 340.1253
ARG_OF_PERICENTER = 180.5059
MEAN_ANOMALY   = 179.6049

EPHEMERIS_TYPE = 0
CLASSIFICATION_TYPE = U
NORAD_CAT_ID   = 22219
ELEMENT_SET_NO = 999
REV_AT_EPOCH   = 72094
BSTAR          = -.1032E-3
MEAN_MOTION_DOT = -.244E-5
MEAN_MOTION_DDOT = 0

CCSDS_OMM_VERS = 2.0
CREATION_DATE  = 
ORIGINATOR     = 

OBJECT_NAME    = SL-16 R/B
OBJECT_ID      = 1992-076B
CENTER_NAME    = EARTH
REF_FRAME      = TEME
TIME_SYSTEM    = UTC
MEAN_ELEMENT_THEORY = SGP/SGP4

EPOCH          = 2026-03-27T15:34:16.001184
MEAN_MOTION    = 14.16863988
ECCENTRICITY   = .0010668
INCLINATION    = 71.0000
RA_OF_ASC_NODE = 150.5463
ARG_OF_PERICENTER = 62.7327
MEAN_ANOMALY   = 99.9266

EPHEMERIS_TYPE = 0
CLASSIFICATION_TYPE = U
NORAD_CAT_ID   = 22220
ELEMENT_SET_NO = 999
REV_AT_EPOCH   = 72437
BSTAR          = -.93498E-5
MEAN_MOTION_DOT = -.67E-6
MEAN_MOTION_DDOT = 0

CCSDS_OMM_VERS = 2.0
CREATION_DATE  = 
ORIGINATOR     = 

OBJECT_NAME    = COSMOS 2221
OBJECT_ID      = 1992-080A
CENTER_NAME    = EARTH
REF_FRAME      = TEME
TIME_SYSTEM    = UTC
MEAN_ELEMENT_THEORY = SGP/SGP4

EPOCH          = 2026-03-27T19:51:52.934400
MEAN_MOTION    = 14.96273260
ECCENTRICITY   = .0015437
INCLINATION    = 82.5007
RA_OF_ASC_NODE = 261.7013
ARG_OF_PERICENTER = 128.5239
MEAN_ANOMALY   = 231.7369

EPHEMERIS_TYPE = 0
CLASSIFICATION_TYPE = U
NORAD_CAT_ID   = 22236
ELEMENT_SET_NO = 999
REV_AT_EPOCH   = 78350
BSTAR          = .21372E-3
MEAN_MOTION_DOT = .2444E-4
MEAN_MOTION_DDOT = 0

CCSDS_OMM_VERS = 2.0
CREATION_DATE  = 
ORIGINATOR     = 

OBJECT_NAME    = SL-16 R/B
OBJECT_ID      = 1992-093B
CENTER_NAME    = EARTH
REF_FRAME      = TEME
TIME_SYSTEM    = UTC
MEAN_ELEMENT_THEORY = SGP/SGP4

EPOCH          = 2026-03-27T19:56:42.431424
MEAN_MOTION    = 14.15454031
ECCENTRICITY   = .0006467
INCLINATION    = 71.0231
RA_OF_ASC_NODE = 326.1850
ARG_OF_PERICENTER = 276.0364
MEAN_ANOMALY   = 84.0022

EPHEMERIS_TYPE = 0
CLASSIFICATION_TYPE = U
NORAD_CAT_ID   = 22285
ELEMENT_SET_NO = 999
REV_AT_EPOCH   = 71572
BSTAR          = .14081E-3
MEAN_MOTION_DOT = .227E-5
MEAN_MOTION_DDOT = 0

CCSDS_OMM_VERS = 2.0
CREATION_DATE  = 
ORIGINATOR     = 

OBJECT_NAME    = COSMOS 2228
OBJECT_ID      = 1992-094A
CENTER_NAME    = EARTH
REF_FRAME      = TEME
TIME_SYSTEM    = UTC
MEAN_ELEMENT_THEORY = SGP/SGP4

EPOCH          = 2026-03-27T19:57:59.330880
MEAN_MOTION    = 14.97280097
ECCENTRICITY   = .0016792
INCLINATION    = 82.5183
RA_OF_ASC_NODE = 219.9392
ARG_OF_PERICENTER = 238.4603
MEAN_ANOMALY   = 121.4981

EPHEMERIS_TYPE = 0
CLASSIFICATION_TYPE = U
NORAD_CAT_ID   = 22286
ELEMENT_SET_NO = 999
REV_AT_EPOCH   = 77877
BSTAR          = .23481E-3
MEAN_MOTION_DOT = .2753E-4
MEAN_MOTION_DDOT = 0

CCSDS_OMM_VERS = 2.0
CREATION_DATE  = 
ORIGINATOR     = 

OBJECT_NAME    = SL-16 R/B
OBJECT_ID      = 1993-016B
CENTER_NAME    = EARTH
REF_FRAME      = TEME
TIME_SYSTEM    = UTC
MEAN_ELEMENT_THEORY = SGP/SGP4

EPOCH          = 2026-03-27T14:10:24.231072
MEAN_MOTION    = 14.15305364
ECCENTRICITY   = .0012336
INCLINATION    = 71.0078
RA_OF_ASC_NODE = 177.5868
ARG_OF_PERICENTER = 291.0065
MEAN_ANOMALY   = 68.9738

EPHEMERIS_TYPE = 0
CLASSIFICATION_TYPE = U
NORAD_CAT_ID   = 22566
ELEMENT_SET_NO = 999
REV_AT_EPOCH   = 70470
BSTAR          = -.16982E-4
MEAN_MOTION_DOT = -.81E-6
MEAN_MOTION_DDOT = 0

